{"type": "FeatureCollection", "features": [ {"type": "Feature", "properties": {"norad_id": 66486, "name": "STARLINK-34844", "group": "last-30-days", "lat": -24.639158685461542, "lon": 34.214696287313885, "alt_km": 346.3264534707787, "timestamp": "2025-12-02T15:49:05.948877+00:00", "meta": {"OBJECT_NAME": "STARLINK-34844", "OBJECT_ID": "2025-263B", "EPOCH": "2025-12-02T06:00:02.999808", "MEAN_MOTION": 15.75105156, "ECCENTRICITY": 0.00018403, "INCLINATION": 42.9989, "RA_OF_ASC_NODE": 187.2095, "ARG_OF_PERICENTER": 265.2841, "MEAN_ANOMALY": 150.1114, "EPHEMERIS_TYPE": 0, "CLASSIFICATION_TYPE": "U", "NORAD_CAT_ID": 66486, "ELEMENT_SET_NO": 999, "REV_AT_EPOCH": 390, "BSTAR": -0.0013433589, "MEAN_MOTION_DOT": -0.00202554, "MEAN_MOTION_DDOT": 0}, "tle": {"line1": "1 66486U 25263B   25336.25003472 -.00202554  00000+0 -13434-2 0  9996", "line2": "2 66486  42.9989 187.2095 0001840 265.2841 150.1114 15.75105156  3907"}}, "geometry": {"type": "Point", "coordinates": [34.214696287313885, -24.639158685461542]}}, {"type": "Feature", "properties": {"norad_id": 66487, "name": "STARLINK-34733", "group": "last-30-days", "lat": -25.76229867495522, "lon": 35.91612353706957, "alt_km": 346.737926879091, "timestamp": "2025-12-02T15:49:05.948889+00:00", "meta": {"OBJECT_NAME": "STARLINK-34733", "OBJECT_ID": "2025-263C", "EPOCH": "2025-12-02T06:00:02.999808", "MEAN_MOTION": 15.75133516, "ECCENTRICITY": 0.00016485, "INCLINATION": 42.999, "RA_OF_ASC_NODE": 187.205, "ARG_OF_PERICENTER": 278.9818, "MEAN_ANOMALY": 138.3175, "EPHEMERIS_TYPE": 0, "CLASSIFICATION_TYPE": "U", "NORAD_CAT_ID": 66487, "ELEMENT_SET_NO": 999, "REV_AT_EPOCH": 395, "BSTAR": -0.0017139564, "MEAN_MOTION_DOT": -0.00256972, "MEAN_MOTION_DDOT": 0}, "tle": {"line1": "1 66487U 25263C   25336.25003472 -.00256972  00000+0 -17140-2 0  9998", "line2": "2 66487  42.9990 187.2050 0001648 278.9818 138.3175 15.75133516  3953"}}, "geometry": {"type": "Point", "coordinates": [35.91612353706957, -25.76229867495522]}}, {"type": "Feature", "properties": {"norad_id": 66488, "name": "STARLINK-35515", "group": "last-30-days", "lat": -26.86831011653938, "lon": 37.654683211505116, "alt_km": 346.7983467201975, "timestamp": "2025-12-02T15:49:05.948900+00:00", "meta": {"OBJECT_NAME": "STARLINK-35515", "OBJECT_ID": "2025-263D", "EPOCH": "2025-12-02T06:00:02.999808", "MEAN_MOTION": 15.75133515, "ECCENTRICITY": 0.00016323, "INCLINATION": 42.9991, "RA_OF_ASC_NODE": 187.2003, "ARG_OF_PERICENTER": 278.9895, "MEAN_ANOMALY": 140.228, "EPHEMERIS_TYPE": 0, "CLASSIFICATION_TYPE": "U", "NORAD_CAT_ID": 66488, "ELEMENT_SET_NO": 999, "REV_AT_EPOCH": 395, "BSTAR": -0.0017403075, "MEAN_MOTION_DOT": -0.00260798, "MEAN_MOTION_DDOT": 0}, "tle": {"line1": "1 66488U 25263D   25336.25003472 -.00260798  00000+0 -17403-2 0  9992", "line2": "2 66488  42.9991 187.2003 0001632 278.9895 140.2280 15.75133515  3959"}}, "geometry": {"type": "Point", "coordinates": [37.654683211505116, -26.86831011653938]}}, {"type": "Feature", "properties": {"norad_id": 66489, "name": "STARLINK-35696", "group": "last-30-days", "lat": -27.95921936061929, "lon": 39.43807813169763, "alt_km": 346.4601766085425, "timestamp": "2025-12-02T15:49:05.948910+00:00", "meta": {"OBJECT_NAME": "STARLINK-35696", "OBJECT_ID": "2025-263E", "EPOCH": "2025-12-02T06:00:02.999808", "MEAN_MOTION": 15.75124079, "ECCENTRICITY": 0.00017279, "INCLINATION": 42.999, "RA_OF_ASC_NODE": 187.1949, "ARG_OF_PERICENTER": 260.539, "MEAN_ANOMALY": 160.5955, "EPHEMERIS_TYPE": 0, "CLASSIFICATION_TYPE": "U", "NORAD_CAT_ID": 66489, "ELEMENT_SET_NO": 999, "REV_AT_EPOCH": 395, "BSTAR": -0.0015067463, "MEAN_MOTION_DOT": -0.00226674, "MEAN_MOTION_DDOT": 0}, "tle": {"line1": "1 66489U 25263E   25336.25003472 -.00226674  00000+0 -15067-2 0  9992", "line2": "2 66489  42.9990 187.1949 0001727 260.5390 160.5955 15.75124079  3958"}}, "geometry": {"type": "Point", "coordinates": [39.43807813169763, -27.95921936061929]}}, {"type": "Feature", "properties": {"norad_id": 66490, "name": "STARLINK-35693", "group": "last-30-days", "lat": -29.014194108727303, "lon": 41.23634808663364, "alt_km": 346.87879209332095, "timestamp": "2025-12-02T15:49:05.948922+00:00", "meta": {"OBJECT_NAME": "STARLINK-35693", "OBJECT_ID": "2025-263F", "EPOCH": "2025-12-02T06:00:02.999808", "MEAN_MOTION": 15.75139521, "ECCENTRICITY": 0.00016304, "INCLINATION": 42.9992, "RA_OF_ASC_NODE": 187.1902, "ARG_OF_PERICENTER": 278.9335, "MEAN_ANOMALY": 144.1129, "EPHEMERIS_TYPE": 0, "CLASSIFICATION_TYPE": "U", "NORAD_CAT_ID": 66490, "ELEMENT_SET_NO": 999, "REV_AT_EPOCH": 395, "BSTAR": -0.0017862665, "MEAN_MOTION_DOT": -0.00267532, "MEAN_MOTION_DDOT": 0}, "tle": {"line1": "1 66490U 25263F   25336.25003472 -.00267532  00000+0 -17863-2 0  9998", "line2": "2 66490  42.9992 187.1902 0001630 278.9335 144.1129 15.75139521  3955"}}, "geometry": {"type": "Point", "coordinates": [41.23634808663364, -29.014194108727303]}}, {"type": "Feature", "properties": {"norad_id": 66491, "name": "STARLINK-35663", "group": "last-30-days", "lat": -31.064807255120765, "lon": 44.975494441828594, "alt_km": 346.5880541862298, "timestamp": "2025-12-02T15:49:05.948933+00:00", "meta": {"OBJECT_NAME": "STARLINK-35663", "OBJECT_ID": "2025-263G", "EPOCH": "2025-12-02T06:00:02.999808", "MEAN_MOTION": 15.75128288, "ECCENTRICITY": 0.00020095, "INCLINATION": 42.9991, "RA_OF_ASC_NODE": 187.1805, "ARG_OF_PERICENTER": 272.7874, "MEAN_ANOMALY": 154.0867, "EPHEMERIS_TYPE": 0, "CLASSIFICATION_TYPE": "U", "NORAD_CAT_ID": 66491, "ELEMENT_SET_NO": 999, "REV_AT_EPOCH": 395, "BSTAR": -0.0014332969, "MEAN_MOTION_DOT": -0.0021597, "MEAN_MOTION_DDOT": 0}, "tle": {"line1": "1 66491U 25263G   25336.25003472 -.00215970  00000+0 -14333-2 0  9997", "line2": "2 66491  42.9991 187.1805 0002009 272.7874 154.0867 15.75128288  3955"}}, "geometry": {"type": "Point", "coordinates": [44.975494441828594, -31.064807255120765]}}, {"type": "Feature", "properties": {"norad_id": 66492, "name": "STARLINK-35673", "group": "last-30-days", "lat": -32.044203053465516, "lon": 46.89618210273342, "alt_km": 346.81785074056916, "timestamp": "2025-12-02T15:49:05.948943+00:00", "meta": {"OBJECT_NAME": "STARLINK-35673", "OBJECT_ID": "2025-263H", "EPOCH": "2025-12-02T06:00:02.999808", "MEAN_MOTION": 15.75142667, "ECCENTRICITY": 0.00017721, "INCLINATION": 42.9988, "RA_OF_ASC_NODE": 187.1755, "ARG_OF_PERICENTER": 273.4346, "MEAN_ANOMALY": 155.3618, "EPHEMERIS_TYPE": 0, "CLASSIFICATION_TYPE": "U", "NORAD_CAT_ID": 66492, "ELEMENT_SET_NO": 999, "REV_AT_EPOCH": 395, "BSTAR": -0.001785186, "MEAN_MOTION_DOT": -0.00267419, "MEAN_MOTION_DDOT": 0}, "tle": {"line1": "1 66492U 25263H   25336.25003472 -.00267419  00000+0 -17852-2 0  9992", "line2": "2 66492  42.9988 187.1755 0001772 273.4346 155.3618 15.75142667  3959"}}, "geometry": {"type": "Point", "coordinates": [46.89618210273342, -32.044203053465516]}}, {"type": "Feature", "properties": {"norad_id": 66493, "name": "STARLINK-35597", "group": "last-30-days", "lat": -32.99764341947088, "lon": 48.86477203966379, "alt_km": 346.9395659398615, "timestamp": "2025-12-02T15:49:05.948953+00:00", "meta": {"OBJECT_NAME": "STARLINK-35597", "OBJECT_ID": "2025-263J", "EPOCH": "2025-12-02T06:00:02.999808", "MEAN_MOTION": 15.7507508, "ECCENTRICITY": 0.00018772, "INCLINATION": 42.9991, "RA_OF_ASC_NODE": 187.1704, "ARG_OF_PERICENTER": 283.1201, "MEAN_ANOMALY": 147.6424, "EPHEMERIS_TYPE": 0, "CLASSIFICATION_TYPE": "U", "NORAD_CAT_ID": 66493, "ELEMENT_SET_NO": 999, "REV_AT_EPOCH": 395, "BSTAR": -0.0011760166, "MEAN_MOTION_DOT": -0.00177666, "MEAN_MOTION_DDOT": 0}, "tle": {"line1": "1 66493U 25263J   25336.25003472 -.00177666  00000+0 -11760-2 0  9999", "line2": "2 66493  42.9991 187.1704 0001877 283.1201 147.6424 15.75075080  3955"}}, "geometry": {"type": "Point", "coordinates": [48.86477203966379, -32.99764341947088]}}, {"type": "Feature", "properties": {"norad_id": 66494, "name": "STARLINK-35689", "group": "last-30-days", "lat": -30.052875082333514, "lon": 43.08690634249426, "alt_km": 346.6607066673714, "timestamp": "2025-12-02T15:49:05.948963+00:00", "meta": {"OBJECT_NAME": "STARLINK-35689", "OBJECT_ID": "2025-263K", "EPOCH": "2025-12-02T06:00:02.999808", "MEAN_MOTION": 15.75137098, "ECCENTRICITY": 0.00017784, "INCLINATION": 42.9991, "RA_OF_ASC_NODE": 187.1855, "ARG_OF_PERICENTER": 268.1459, "MEAN_ANOMALY": 156.8173, "EPHEMERIS_TYPE": 0, "CLASSIFICATION_TYPE": "U", "NORAD_CAT_ID": 66494, "ELEMENT_SET_NO": 999, "REV_AT_EPOCH": 395, "BSTAR": -0.0017135418, "MEAN_MOTION_DOT": -0.00256957, "MEAN_MOTION_DDOT": 0}, "tle": {"line1": "1 66494U 25263K   25336.25003472 -.00256957  00000+0 -17135-2 0  9993", "line2": "2 66494  42.9991 187.1855 0001778 268.1459 156.8173 15.75137098  3952"}}, "geometry": {"type": "Point", "coordinates": [43.08690634249426, -30.052875082333514]}}, {"type": "Feature", "properties": {"norad_id": 66495, "name": "STARLINK-35832", "group": "last-30-days", "lat": -33.916936059389776, "lon": 50.871768171513494, "alt_km": 346.8166772737977, "timestamp": "2025-12-02T15:49:05.948973+00:00", "meta": {"OBJECT_NAME": "STARLINK-35832", "OBJECT_ID": "2025-263L", "EPOCH": "2025-12-02T06:00:02.999808", "MEAN_MOTION": 15.75144308, "ECCENTRICITY": 0.00015707, "INCLINATION": 42.9988, "RA_OF_ASC_NODE": 187.1658, "ARG_OF_PERICENTER": 258.8694, "MEAN_ANOMALY": 173.7563, "EPHEMERIS_TYPE": 0, "CLASSIFICATION_TYPE": "U", "NORAD_CAT_ID": 66495, "ELEMENT_SET_NO": 999, "REV_AT_EPOCH": 395, "BSTAR": -0.0018075747, "MEAN_MOTION_DOT": -0.00270672, "MEAN_MOTION_DDOT": 0}, "tle": {"line1": "1 66495U 25263L   25336.25003472 -.00270672  00000+0 -18076-2 0  9999", "line2": "2 66495  42.9988 187.1658 0001570 258.8694 173.7563 15.75144308  3950"}}, "geometry": {"type": "Point", "coordinates": [50.871768171513494, -33.916936059389776]}}]}